NORAD_CAT_ID,OBJECT_NAME,OBJECT_TYPE,EPOCH,MEAN_MOTION,ECCENTRICITY,INCLINATION,RA_OF_ASC_NODE,ARG_OF_PERICENTER,MEAN_ANOMALY,BSTAR,MEAN_MOTION_DOT,MEAN_MOTION_DDOT,TLE_LINE0,TLE_LINE1,TLE_LINE2,SEMIMAJOR_AXIS,PERIOD,APOGEE,PERIGEE,DECAYED
53034.0,STARLINK-4151,PAYLOAD,2022-11-12 18:33:02,15.08838387,0.0001206,53.215,119.1138,79.7314,280.3814,0.00014178,1.969e-05,0.0,0 STARLINK-4151,1 53034U 22076BA  22316.77294397  .00001969  00000-0  14178-3 0  9993,2 53034  53.2150 119.1138 0001206  79.7314 280.3814 15.08838387 20477,6917.885,95.438,540.585,538.9159999999998,0.0
53034.0,STARLINK-4151,PAYLOAD,2022-11-13 10:26:53,15.08875633,0.0001525,53.215,116.1448,71.1004,289.0154,-0.00028247,-4.785e-05,0.0,0 STARLINK-4151,1 53034U 22076BA  22317.43533995 -.00004785  00000-0 -28247-3 0  9990,2 53034  53.2150 116.1448 0001525  71.1004 289.0154 15.08875633 20573,6917.771,95.435,540.691,538.582,0.0
53034.0,STARLINK-4151,PAYLOAD,2022-11-13 16:48:26,15.08838622,0.0001524,53.2152,114.9499,90.2194,269.8973,3.1482e-05,2.13e-06,0.0,0 STARLINK-4151,1 53034U 22076BA  22317.70030740  .00000213  00000-0  31482-4 0  9996,2 53034  53.2152 114.9499 0001524  90.2194 269.8973 15.08838622 20615,6917.885,95.438,540.804,538.695,0.0
53034.0,STARLINK-4151,PAYLOAD,2022-11-14 03:56:08,15.08843086,0.0001194,53.2146,112.869,82.4519,277.6609,7.5021e-05,9.06e-06,0.0,0 STARLINK-4151,1 53034U 22076BA  22318.16398158  .00000906  00000-0  75021-4 0  9993,2 53034  53.2146 112.8690 0001194  82.4519 277.6609 15.08843086 20225,6917.871,95.437,540.562,538.91,0.0
53034.0,STARLINK-4151,PAYLOAD,2022-11-14 16:39:13,15.08839444,0.0001332,53.2151,110.489,85.1717,274.9427,-8.5661e-05,-1.651e-05,0.0,0 STARLINK-4151,1 53034U 22076BA  22318.69390871 -.00001651  00000-0 -85661-4 0  9996,2 53034  53.2151 110.4890 0001332  85.1717 274.9427 15.08839444 20301,6917.882,95.438,540.669,538.826,0.0
53034.0,STARLINK-4151,PAYLOAD,2022-11-14 21:25:23,15.08838214,0.0001328,53.2138,109.5962,85.8546,274.2598,-8.976600000000001e-05,-1.716e-05,0.0,0 STARLINK-4151,1 53034U 22076BA  22318.89262923 -.00001716  00000-0 -89766-4 0  9996,2 53034  53.2138 109.5962 0001328  85.8546 274.2598 15.08838214 20796,6917.886,95.438,540.67,538.832,0.0
53034.0,STARLINK-4151,PAYLOAD,2022-11-15 13:19:13,15.08842007,0.0001488,53.2145,106.6232,81.8767,278.2394,4.0007e-05,3.49e-06,0.0,0 STARLINK-4151,1 53034U 22076BA  22319.55502125  .00000349  00000-0  40007-4 0  9995,2 53034  53.2145 106.6232 0001488  81.8767 278.2394 15.08842007 20434,6917.874,95.437,540.769,538.71,0.0
53034.0,STARLINK-4151,PAYLOAD,2022-11-15 14:54:36,15.08842642,0.0001475,53.2146,106.326,81.0248,279.0911,4.702e-05,4.6e-06,0.0,0 STARLINK-4151,1 53034U 22076BA  22319.62126048  .00000460  00000-0  47020-4 0  9995,2 53034  53.2146 106.3260 0001475  81.0248 279.0911 15.08842642 20906,6917.871999999999,95.437,540.758,538.717,0.0
53034.0,STARLINK-4151,PAYLOAD,2022-11-15 16:29:59,15.088452800000002,0.0001481,53.2149,106.0281,83.3084,276.8076,3.283e-05,2.35e-06,0.0,0 STARLINK-4151,1 53034U 22076BA  22319.68749917  .00000235  00000-0  32830-4 0  9990,2 53034  53.2149 106.0281 0001481  83.3084 276.8076 15.08845280 20457,6917.864000000001,95.437,540.754,538.705,0.0
53034.0,STARLINK-4151,PAYLOAD,2022-11-15 21:16:09,15.08838674,0.0001438,53.2142,105.1362,80.1702,279.9453,-3.0831e-06,-3.37e-06,0.0,0 STARLINK-4151,1 53034U 22076BA  22319.88622416 -.00000337  00000-0 -30831-5 0  9991,2 53034  53.2142 105.1362 0001438  80.1702 279.9453 15.08838674 20940,6917.884,95.438,540.744,538.755,0.0
53034.0,STARLINK-4151,PAYLOAD,2022-11-16 16:20:47,15.08832311,0.0001474,53.2157,101.5673,77.9733,282.1424,-2.062e-06,-3.21e-06,0.0,0 STARLINK-4151,1 53034U 22076BA  22320.68110934 -.00000321  00000-0 -20620-5 0  9996,2 53034  53.2157 101.5673 0001474  77.9733 282.1424 15.08832311 21069,6917.904,95.438,540.789,538.749,0.0
53034.0,STARLINK-4151,PAYLOAD,2022-11-17 09:50:02,15.08832973,0.0001398,53.2156,98.2959,73.5501,286.5645,-4.8195e-05,-1.055e-05,0.0,0 STARLINK-4151,1 53034U 22076BA  22321.40975324 -.00001055  00000-0 -48195-4 0  9990,2 53034  53.2156  98.2959 0001398  73.5501 286.5645 15.08832973 20715,6917.901999999999,95.438,540.734,538.8,0.0
53034.0,STARLINK-4151,PAYLOAD,2022-11-17 16:11:35,15.08834667,0.0001395,53.2157,97.1064,72.9091,287.2054,-7.201e-05,-1.434e-05,0.0,0 STARLINK-4151,1 53034U 22076BA  22321.67471415 -.00001434  00000-0 -72010-4 0  9995,2 53034  53.2157  97.1064 0001395  72.9091 287.2054 15.08834667 20753,6917.897,95.438,540.727,538.797,0.0
53034.0,STARLINK-4151,PAYLOAD,2022-11-17 20:57:44,15.08835229,0.0001385999999999,53.2164,96.2138,69.2401,290.874,-3.6886e-05,-8.75e-06,0.0,0 STARLINK-4151,1 53034U 22076BA  22321.87343309 -.00000875  00000-0 -36886-4 0  9996,2 53034  53.2164  96.2138 0001386  69.2401 290.8740 15.08835229 21249,6917.895,95.438,540.719,538.8009999999998,0.0
53034.0,STARLINK-4151,PAYLOAD,2022-11-18 09:40:49,15.08837609,0.0001204,53.2152,93.8369,65.8111,294.3007,5.9536e-05,6.6e-06,0.0,0 STARLINK-4151,1 53034U 22076BA  22322.40334864  .00000660  00000-0  59536-4 0  9999,2 53034  53.2152  93.8369 0001204  65.8111 294.3007 15.08837609 20860,6917.888000000001,95.438,540.586,538.92,0.0
53034.0,STARLINK-4151,PAYLOAD,2022-11-18 19:13:08,15.08833698,0.000123,53.2159,92.0536,60.8332,299.2783,-4.5314e-06,-3.6000000000000007e-06,0.0,0 STARLINK-4151,1 53034U 22076BA  22322.80079515 -.00000360  00000-0 -45314-5 0  9991,2 53034  53.2159  92.0536 0001230  60.8332 299.2783 15.08833698 20929,6917.9,95.438,540.616,538.914,0.0
53034.0,STARLINK-4151,PAYLOAD,2022-11-19 01:34:41,15.08833178,0.0001272,53.2151,90.863,68.0983,292.0145,2.8878e-05,1.72e-06,0.0,0 STARLINK-4151,1 53034U 22076BA  22323.06575563  .00000172  00000-0  28878-4 0  9998,2 53034  53.2151  90.8630 0001272  68.0983 292.0145 15.08833178 21422,6917.901,95.438,540.646,538.886,0.0
53034.0,STARLINK-4151,PAYLOAD,2022-11-19 09:31:36,15.08837196,0.0001273,53.2152,89.3758,66.1694,293.9431,5.8163e-05,6.38e-06,0.0,0 STARLINK-4151,1 53034U 22076BA  22323.39695306  .00000638  00000-0  58163-4 0  9999,2 53034  53.2152  89.3758 0001273  66.1694 293.9431 15.08837196 21013,6917.889,95.438,540.635,538.873,0.0
53034.0,STARLINK-4151,PAYLOAD,2022-11-19 19:03:55,15.08838446,0.0001296,53.2153,87.5916,66.188,293.9247,5.9927e-05,6.66e-06,0.0,0 STARLINK-4151,1 53034U 22076BA  22323.79439243  .00000666  00000-0  59927-4 0  9999,2 53034  53.2153  87.5916 0001296  66.1880 293.9247 15.08838446 21072,6917.885,95.438,540.6469999999998,538.854,0.0
53034.0,STARLINK-4151,PAYLOAD,2022-11-20 12:33:10,15.0883385,0.0001147,53.2135,84.319,60.3505,299.7601,5.1594e-05,5.33e-06,0.0,0 STARLINK-4151,1 53034U 22076BA  22324.52303597  .00000533  00000-0  51594-4 0  9998,2 53034  53.2135  84.3190 0001147  60.3505 299.7601 15.08833850 21641,6917.899,95.438,540.558,538.971,0.0
53034.0,STARLINK-4151,PAYLOAD,2022-11-20 17:19:19,15.0883736,0.0001255,53.2148,83.4272,64.9249,295.1873,7.6118e-05,9.24e-06,0.0,0 STARLINK-4151,1 53034U 22076BA  22324.72175359  .00000924  00000-0  76118-4 0  9996,2 53034  53.2148  83.4272 0001255  64.9249 295.1873 15.08837360 21215,6917.888000000001,95.438,540.622,538.885,0.0
53034.0,STARLINK-4151,PAYLOAD,2022-11-21 01:16:14,15.08844711,0.0001249,53.2149,81.9404,64.8154,295.2967,9.0614e-05,1.155e-05,0.0,0 STARLINK-4151,1 53034U 22076BA  22325.05294794  .00001155  00000-0  90614-4 0  9992,2 53034  53.2149  81.9404 0001249  64.8154 295.2967 15.08844711 21722,6917.866,95.437,540.595,538.867,0.0
53034.0,STARLINK-4151,PAYLOAD,2022-11-21 07:37:48,15.08833879,0.0001343,53.2153,80.7515,68.6531,291.4604,-5.7987e-05,-1.21e-05,0.0,0 STARLINK-4151,1 53034U 22076BA  22325.31792037 -.00001210  00000-0 -57987-4 0  9994,2 53034  53.2153  80.7515 0001343  68.6531 291.4604 15.08833879 21766,6917.899,95.438,540.693,538.835,0.0
53034.0,STARLINK-4151,PAYLOAD,2022-11-21 12:23:57,15.08833622,0.0001347,53.2154,79.8594,69.5065,290.6072,-5.8161e-05,-1.213e-05,0.0,0 STARLINK-4151,1 53034U 22076BA  22325.51664092 -.00001213  00000-0 -58161-4 0  9993,2 53034  53.2154  79.8594 0001347  69.5065 290.6072 15.08833622 21338,6917.9,95.438,540.697,538.8330000000002,0.0
53034.0,STARLINK-4151,PAYLOAD,2022-11-22 13:50:07,15.08839871,0.0001375999999999,53.2162,75.1023,66.7461,293.3675,-8.7784e-06,-4.28e-06,0.0,0 STARLINK-4151,1 53034U 22076BA  22326.57647490 -.00000428  00000-0 -87784-5 0  9994,2 53034  53.2162  75.1023 0001376  66.7461 293.3675 15.08839871 21953,6917.880999999999,95.438,540.698,538.794,0.0
53034.0,STARLINK-4151,PAYLOAD,2022-11-23 10:30:07,15.08843413,0.0001450999999999,53.2163,71.2371,63.1486,296.9654,0.00010028,1.309e-05,0.0,0 STARLINK-4151,1 53034U 22076BA  22327.43758594  .00001309  00000-0  10028-3 0  9990,2 53034  53.2163  71.2371 0001451  63.1486 296.9654 15.08843413 21626,6917.87,95.437,540.739,538.731,0.0
53034.0,STARLINK-4151,PAYLOAD,2022-11-23 13:40:53,15.08839261,0.0001439,53.2165,70.6425,61.5303,298.5834,7.4378e-05,8.96e-06,0.0,0 STARLINK-4151,1 53034U 22076BA  22327.57006907  .00000896  00000-0  74378-4 0  9998,2 53034  53.2165  70.6425 0001439  61.5303 298.5834 15.08839261 21643,6917.8830000000025,95.438,540.743,538.752,0.0
53034.0,STARLINK-4151,PAYLOAD,2022-11-24 07:10:07,15.08848325,0.0001916,53.2163,67.3713,75.0502,285.0702,9.3763e-05,1.205e-05,0.0,0 STARLINK-4151,1 53034U 22076BA  22328.29869802  .00001205  00000-0  93763-4 0  9993,2 53034  53.2163  67.3713 0001916  75.0502 285.0702 15.08848325 22215,6917.855,95.437,541.045,538.394,0.0
53034.0,STARLINK-4151,PAYLOAD,2022-11-24 10:20:53,15.08848905,0.0001255,53.2169,66.7761,59.2968,300.8148,7.1339e-05,8.48e-06,0.0,0 STARLINK-4151,1 53034U 22076BA  22328.43117753  .00000848  00000-0  71339-4 0  9997,2 53034  53.2169  66.7761 0001255  59.2968 300.8148 15.08848905 21777,6917.853,95.437,540.586,538.85,0.0
